{"type": "FeatureCollection", "features": [ {"type": "Feature", "properties": {"norad_id": 66829, "name": "STARLINK-36084", "group": "last-30-days", "lat": 1.7286007357055506, "lon": -7.012991736402405, "alt_km": 411.56882767718434, "timestamp": "2025-12-21T18:54:57.224021+00:00", "meta": {"OBJECT_NAME": "STARLINK-36084", "OBJECT_ID": "2025-280J", "EPOCH": "2025-12-21T14:00:01.999872", "MEAN_MOTION": 15.52612793, "ECCENTRICITY": 0.00033466, "INCLINATION": 70.0001, "RA_OF_ASC_NODE": 174.1776, "ARG_OF_PERICENTER": 270.199, "MEAN_ANOMALY": 203.499, "EPHEMERIS_TYPE": 0, "CLASSIFICATION_TYPE": "U", "NORAD_CAT_ID": 66829, "ELEMENT_SET_NO": 999, "REV_AT_EPOCH": 415, "BSTAR": -0.0020386791, "MEAN_MOTION_DOT": -0.00124073, "MEAN_MOTION_DDOT": 0}, "tle": {"line1": "1 66829U 25280J   25355.58335648 -.00124073  00000+0 -20387-2 0  9990", "line2": "2 66829  70.0001 174.1776 0003346 270.1990 203.4990 15.52612793  4156"}}, "geometry": {"type": "Point", "coordinates": [-7.012991736402405, 1.7286007357055506]}}, {"type": "Feature", "properties": {"norad_id": 66830, "name": "STARLINK-35881", "group": "last-30-days", "lat": -1.9901911715206142, "lon": -5.663686238990434, "alt_km": 411.8260256894473, "timestamp": "2025-12-21T18:54:57.224032+00:00", "meta": {"OBJECT_NAME": "STARLINK-35881", "OBJECT_ID": "2025-280K", "EPOCH": "2025-12-21T14:00:01.999872", "MEAN_MOTION": 15.52640106, "ECCENTRICITY": 0.00033825, "INCLINATION": 70.0001, "RA_OF_ASC_NODE": 174.1719, "ARG_OF_PERICENTER": 267.0615, "MEAN_ANOMALY": 210.5915, "EPHEMERIS_TYPE": 0, "CLASSIFICATION_TYPE": "U", "NORAD_CAT_ID": 66830, "ELEMENT_SET_NO": 999, "REV_AT_EPOCH": 431, "BSTAR": -0.0039600245, "MEAN_MOTION_DOT": -0.00237699, "MEAN_MOTION_DDOT": 0}, "tle": {"line1": "1 66830U 25280K   25355.58335648 -.00237699  00000+0 -39600-2 0  9999", "line2": "2 66830  70.0001 174.1719 0003382 267.0615 210.5915 15.52640106  4317"}}, "geometry": {"type": "Point", "coordinates": [-5.663686238990434, -1.9901911715206142]}}, {"type": "Feature", "properties": {"norad_id": 66831, "name": "STARLINK-35788", "group": "last-30-days", "lat": -3.6969826793854637, "lon": -5.040848152513164, "alt_km": 412.491646646522, "timestamp": "2025-12-21T18:54:57.224042+00:00", "meta": {"OBJECT_NAME": "STARLINK-35788", "OBJECT_ID": "2025-280L", "EPOCH": "2025-12-21T14:00:01.999872", "MEAN_MOTION": 15.5249839, "ECCENTRICITY": 0.00034366, "INCLINATION": 69.9997, "RA_OF_ASC_NODE": 174.1713, "ARG_OF_PERICENTER": 277.8172, "MEAN_ANOMALY": 201.7154, "EPHEMERIS_TYPE": 0, "CLASSIFICATION_TYPE": "U", "NORAD_CAT_ID": 66831, "ELEMENT_SET_NO": 999, "REV_AT_EPOCH": 431, "BSTAR": 0.00058971784, "MEAN_MOTION_DOT": 0.00036252, "MEAN_MOTION_DDOT": 0}, "tle": {"line1": "1 66831U 25280L   25355.58335648  .00036252  00000+0  58972-3 0  9994", "line2": "2 66831  69.9997 174.1713 0003436 277.8172 201.7154 15.52498390  4313"}}, "geometry": {"type": "Point", "coordinates": [-5.040848152513164, -3.6969826793854637]}}, {"type": "Feature", "properties": {"norad_id": 66832, "name": "STARLINK-35768", "group": "last-30-days", "lat": -5.506559898377839, "lon": -4.3804361320453165, "alt_km": 412.2743151459381, "timestamp": "2025-12-21T18:54:57.224054+00:00", "meta": {"OBJECT_NAME": "STARLINK-35768", "OBJECT_ID": "2025-280M", "EPOCH": "2025-12-21T14:00:01.999872", "MEAN_MOTION": 15.52491304, "ECCENTRICITY": 0.00033147, "INCLINATION": 70, "RA_OF_ASC_NODE": 174.168, "ARG_OF_PERICENTER": 268.2237, "MEAN_ANOMALY": 213.239, "EPHEMERIS_TYPE": 0, "CLASSIFICATION_TYPE": "U", "NORAD_CAT_ID": 66832, "ELEMENT_SET_NO": 999, "REV_AT_EPOCH": 431, "BSTAR": 0.00060028114, "MEAN_MOTION_DOT": 0.00036897, "MEAN_MOTION_DDOT": 0}, "tle": {"line1": "1 66832U 25280M   25355.58335648  .00036897  00000+0  60028-3 0  9995", "line2": "2 66832  70.0000 174.1680 0003314 268.2237 213.2390 15.52491304  4314"}}, "geometry": {"type": "Point", "coordinates": [-4.3804361320453165, -5.506559898377839]}}, {"type": "Feature", "properties": {"norad_id": 66833, "name": "STARLINK-35858", "group": "last-30-days", "lat": -7.3024901423194315, "lon": -3.718836569209475, "alt_km": 412.27624991041466, "timestamp": "2025-12-21T18:54:57.224064+00:00", "meta": {"OBJECT_NAME": "STARLINK-35858", "OBJECT_ID": "2025-280N", "EPOCH": "2025-12-21T14:00:01.999872", "MEAN_MOTION": 15.52495514, "ECCENTRICITY": 0.00033822, "INCLINATION": 69.9999, "RA_OF_ASC_NODE": 174.1666, "ARG_OF_PERICENTER": 265.1798, "MEAN_ANOMALY": 218.1937, "EPHEMERIS_TYPE": 0, "CLASSIFICATION_TYPE": "U", "NORAD_CAT_ID": 66833, "ELEMENT_SET_NO": 999, "REV_AT_EPOCH": 431, "BSTAR": 0.00052435811, "MEAN_MOTION_DOT": 0.00032195, "MEAN_MOTION_DDOT": 0}, "tle": {"line1": "1 66833U 25280N   25355.58335648  .00032195  00000+0  52436-3 0  9997", "line2": "2 66833  69.9999 174.1666 0003382 265.1798 218.1937 15.52495514  4314"}}, "geometry": {"type": "Point", "coordinates": [-3.718836569209475, -7.3024901423194315]}}, {"type": "Feature", "properties": {"norad_id": 66834, "name": "STARLINK-35840", "group": "last-30-days", "lat": -9.10758974618299, "lon": -3.0500254983541053, "alt_km": 412.49254488200313, "timestamp": "2025-12-21T18:54:57.224074+00:00", "meta": {"OBJECT_NAME": "STARLINK-35840", "OBJECT_ID": "2025-280P", "EPOCH": "2025-12-21T14:00:01.999872", "MEAN_MOTION": 15.52490916, "ECCENTRICITY": 0.0003269, "INCLINATION": 70.0001, "RA_OF_ASC_NODE": 174.1633, "ARG_OF_PERICENTER": 266.5979, "MEAN_ANOMALY": 218.7017, "EPHEMERIS_TYPE": 0, "CLASSIFICATION_TYPE": "U", "NORAD_CAT_ID": 66834, "ELEMENT_SET_NO": 999, "REV_AT_EPOCH": 431, "BSTAR": 0.00051763678, "MEAN_MOTION_DOT": 0.00031773, "MEAN_MOTION_DDOT": 0}, "tle": {"line1": "1 66834U 25280P   25355.58335648  .00031773  00000+0  51764-3 0  9992", "line2": "2 66834  70.0001 174.1633 0003269 266.5979 218.7017 15.52490916  4312"}}, "geometry": {"type": "Point", "coordinates": [-3.0500254983541053, -9.10758974618299]}}, {"type": "Feature", "properties": {"norad_id": 66835, "name": "STARLINK-35890", "group": "last-30-days", "lat": -10.90329522044124, "lon": -2.376916824116009, "alt_km": 412.5918116265948, "timestamp": "2025-12-21T18:54:57.224085+00:00", "meta": {"OBJECT_NAME": "STARLINK-35890", "OBJECT_ID": "2025-280Q", "EPOCH": "2025-12-21T14:00:01.999872", "MEAN_MOTION": 15.52486871, "ECCENTRICITY": 0.00032943, "INCLINATION": 69.9999, "RA_OF_ASC_NODE": 174.1605, "ARG_OF_PERICENTER": 265.9769, "MEAN_ANOMALY": 221.2398, "EPHEMERIS_TYPE": 0, "CLASSIFICATION_TYPE": "U", "NORAD_CAT_ID": 66835, "ELEMENT_SET_NO": 999, "REV_AT_EPOCH": 431, "BSTAR": 0.00064503817, "MEAN_MOTION_DOT": 0.00039668, "MEAN_MOTION_DDOT": 0}, "tle": {"line1": "1 66835U 25280Q   25355.58335648  .00039668  00000+0  64504-3 0  9990", "line2": "2 66835  69.9999 174.1605 0003294 265.9769 221.2398 15.52486871  4319"}}, "geometry": {"type": "Point", "coordinates": [-2.376916824116009, -10.90329522044124]}}, {"type": "Feature", "properties": {"norad_id": 66836, "name": "STARLINK-35838", "group": "last-30-days", "lat": -12.707599417340312, "lon": -1.6906947882745906, "alt_km": 412.7400595254885, "timestamp": "2025-12-21T18:54:57.224095+00:00", "meta": {"OBJECT_NAME": "STARLINK-35838", "OBJECT_ID": "2025-280R", "EPOCH": "2025-12-21T14:00:01.999872", "MEAN_MOTION": 15.52575621, "ECCENTRICITY": 0.00032189, "INCLINATION": 70.0003, "RA_OF_ASC_NODE": 174.1589, "ARG_OF_PERICENTER": 268.7982, "MEAN_ANOMALY": 220.301, "EPHEMERIS_TYPE": 0, "CLASSIFICATION_TYPE": "U", "NORAD_CAT_ID": 66836, "ELEMENT_SET_NO": 999, "REV_AT_EPOCH": 431, "BSTAR": -0.0017608252, "MEAN_MOTION_DOT": -0.00107265, "MEAN_MOTION_DDOT": 0}, "tle": {"line1": "1 66836U 25280R   25355.58335648 -.00107265  00000+0 -17608-2 0  9994", "line2": "2 66836  70.0003 174.1589 0003218 268.7982 220.3010 15.52575621  4317"}}, "geometry": {"type": "Point", "coordinates": [-1.6906947882745906, -12.707599417340312]}}, {"type": "Feature", "properties": {"norad_id": 66837, "name": "STARLINK-35729", "group": "last-30-days", "lat": -14.487213228133836, "lon": -1.0042004369296074, "alt_km": 412.83679590721385, "timestamp": "2025-12-21T18:54:57.224105+00:00", "meta": {"OBJECT_NAME": "STARLINK-35729", "OBJECT_ID": "2025-280S", "EPOCH": "2025-12-21T14:00:01.999872", "MEAN_MOTION": 15.52495997, "ECCENTRICITY": 0.00035235, "INCLINATION": 70.0003, "RA_OF_ASC_NODE": 174.1565, "ARG_OF_PERICENTER": 268.0736, "MEAN_ANOMALY": 222.9687, "EPHEMERIS_TYPE": 0, "CLASSIFICATION_TYPE": "U", "NORAD_CAT_ID": 66837, "ELEMENT_SET_NO": 999, "REV_AT_EPOCH": 431, "BSTAR": 0.00045059664, "MEAN_MOTION_DOT": 0.00027628, "MEAN_MOTION_DDOT": 0}, "tle": {"line1": "1 66837U 25280S   25355.58335648  .00027628  00000+0  45060-3 0  9991", "line2": "2 66837  70.0003 174.1565 0003523 268.0736 222.9687 15.52495997  4316"}}, "geometry": {"type": "Point", "coordinates": [-1.0042004369296074, -14.487213228133836]}}, {"type": "Feature", "properties": {"norad_id": 66838, "name": "STARLINK-35886", "group": "last-30-days", "lat": -18.071690991117578, "lon": 0.41539456961095395, "alt_km": 413.2499725163825, "timestamp": "2025-12-21T18:54:57.224115+00:00", "meta": {"OBJECT_NAME": "STARLINK-35886", "OBJECT_ID": "2025-280T", "EPOCH": "2025-12-21T14:00:01.999872", "MEAN_MOTION": 15.5248623, "ECCENTRICITY": 0.00029795, "INCLINATION": 70.0001, "RA_OF_ASC_NODE": 174.1504, "ARG_OF_PERICENTER": 270.721, "MEAN_ANOMALY": 224.1572, "EPHEMERIS_TYPE": 0, "CLASSIFICATION_TYPE": "U", "NORAD_CAT_ID": 66838, "ELEMENT_SET_NO": 999, "REV_AT_EPOCH": 431, "BSTAR": 0.00083736914, "MEAN_MOTION_DOT": 0.00051621, "MEAN_MOTION_DDOT": 0}, "tle": {"line1": "1 66838U 25280T   25355.58335648  .00051621  00000+0  83737-3 0  9995", "line2": "2 66838  70.0001 174.1504 0002979 270.7210 224.1572 15.52486230  4316"}}, "geometry": {"type": "Point", "coordinates": [0.41539456961095395, -18.071690991117578]}}]}